[
    {
        "Altitude(m)": 715644.05225949,
        "Argument of Periapsis(deg)": 0.0011390121186627068,
        "Eccentricity": 0.0,
        "Inclination(deg)": 45.0,
        "Latitude(deg)": -39.75031618047923,
        "Longitude(deg)": 164.13397845199967,
        "Mean Anomaly(deg)": -64.30117833525193,
        "RAAN(deg)": 319.99892480585413,
        "Satellite Name": "Constellation 1 1426",
        "Satellite Number": 1426,
        "Semi-Major Axis(m)": 7083131.272910544,
        "Time(s)": 19
    },
    {
        "Altitude(m)": 715634.0531874012,
        "Argument of Periapsis(deg)": 0.0011989601249081123,
        "Eccentricity": 0.0,
        "Inclination(deg)": 45.0,
        "Latitude(deg)": -39.72616950843359,
        "Longitude(deg)": 164.2019680077542,
        "Mean Anomaly(deg)": -64.24047719500194,
        "RAAN(deg)": 319.9988682166886,
        "Satellite Name": "Constellation 1 1426",
        "Satellite Number": 1426,
        "Semi-Major Axis(m)": 7083131.272910544,
        "Time(s)": 20
    },
    {
        "Altitude(m)": 715624.0359541054,
        "Argument of Periapsis(deg)": 0.001258908131153518,
        "Eccentricity": 0.0,
        "Inclination(deg)": 45.0,
        "Latitude(deg)": -39.7019779738957,
        "Longitude(deg)": 164.26990737035712,
        "Mean Anomaly(deg)": -64.17977605475211,
        "RAAN(deg)": 319.998811627523,
        "Satellite Name": "Constellation 1 1426",
        "Satellite Number": 1426,
        "Semi-Major Axis(m)": 7083131.272910544,
        "Time(s)": 21
    },
    {
        "Altitude(m)": 715614.000596107,
        "Argument of Periapsis(deg)": 0.0013188561373989236,
        "Eccentricity": 0.0,
        "Inclination(deg)": 45.0,
        "Latitude(deg)": -39.677741645557035,
        "Longitude(deg)": 164.3377963570484,
        "Mean Anomaly(deg)": -64.11907491450228,
        "RAAN(deg)": 319.9987550383575,
        "Satellite Name": "Constellation 1 1426",
        "Satellite Number": 1426,
        "Semi-Major Axis(m)": 7083131.272910544,
        "Time(s)": 22
    },
    {
        "Altitude(m)": 715603.9471499701,
        "Argument of Periapsis(deg)": 0.0013788041436443293,
        "Eccentricity": 0.0,
        "Inclination(deg)": 45.0,
        "Latitude(deg)": -39.65346059211002,
        "Longitude(deg)": 164.40563528979055,
        "Mean Anomaly(deg)": -64.05837377425235,
        "RAAN(deg)": 319.9986984491919,
        "Satellite Name": "Constellation 1 1426",
        "Satellite Number": 1426,
        "Semi-Major Axis(m)": 7083131.272910544,
        "Time(s)": 23
    },
    {
        "Altitude(m)": 715593.8756523238,
        "Argument of Periapsis(deg)": 0.001438752149889735,
        "Eccentricity": 0.0,
        "Inclination(deg)": 45.0,
        "Latitude(deg)": -39.62913488224572,
        "Longitude(deg)": 164.47342398668528,
        "Mean Anomaly(deg)": -63.9976726340024,
        "RAAN(deg)": 319.9986418600263,
        "Satellite Name": "Constellation 1 1426",
        "Satellite Number": 1426,
        "Semi-Major Axis(m)": 7083131.272910544,
        "Time(s)": 24
    },
    {
        "Altitude(m)": 715583.7861398595,
        "Argument of Periapsis(deg)": 0.0014987001561351404,
        "Eccentricity": 0.0,
        "Inclination(deg)": 45.0,
        "Latitude(deg)": -39.60476458465421,
        "Longitude(deg)": 164.54116243436079,
        "Mean Anomaly(deg)": -63.936971493752566,
        "RAAN(deg)": 319.99858527086076,
        "Satellite Name": "Constellation 1 1426",
        "Satellite Number": 1426,
        "Semi-Major Axis(m)": 7083131.272910544,
        "Time(s)": 25
    },
    {
        "Altitude(m)": 715573.6786493345,
        "Argument of Periapsis(deg)": 0.001558648162380546,
        "Eccentricity": 0.0,
        "Inclination(deg)": 45.0,
        "Latitude(deg)": -39.580349768023794,
        "Longitude(deg)": 164.60885061987295,
        "Mean Anomaly(deg)": -63.876270353502626,
        "RAAN(deg)": 319.9985286816952,
        "Satellite Name": "Constellation 1 1426",
        "Satellite Number": 1426,
        "Semi-Major Axis(m)": 7083131.272910544,
        "Time(s)": 26
    },
    {
        "Altitude(m)": 715563.5532175712,
        "Argument of Periapsis(deg)": 0.0016185961686259519,
        "Eccentricity": 0.0,
        "Inclination(deg)": 45.0,
        "Latitude(deg)": -39.55589050104048,
        "Longitude(deg)": 164.67648853070378,
        "Mean Anomaly(deg)": -63.815569213252694,
        "RAAN(deg)": 319.99847209252965,
        "Satellite Name": "Constellation 1 1426",
        "Satellite Number": 1426,
        "Semi-Major Axis(m)": 7083131.272910544,
        "Time(s)": 27
    },
    {
        "Altitude(m)": 715553.4098814421,
        "Argument of Periapsis(deg)": 0.0016785441748713573,
        "Eccentricity": 0.0,
        "Inclination(deg)": 45.0,
        "Latitude(deg)": -39.531386852387435,
        "Longitude(deg)": 164.7440761547602,
        "Mean Anomaly(deg)": -63.75486807300281,
        "RAAN(deg)": 319.9984155033641,
        "Satellite Name": "Constellation 1 1426",
        "Satellite Number": 1426,
        "Semi-Major Axis(m)": 7083131.272910544,
        "Time(s)": 28
    },
    {
        "Altitude(m)": 715543.2486778962,
        "Argument of Periapsis(deg)": 0.001738492181116763,
        "Eccentricity": 0.0,
        "Inclination(deg)": 45.0,
        "Latitude(deg)": -39.50683889074427,
        "Longitude(deg)": 164.811613480373,
        "Mean Anomaly(deg)": -63.694166932752964,
        "RAAN(deg)": 319.9983589141985,
        "Satellite Name": "Constellation 1 1426",
        "Satellite Number": 1426,
        "Semi-Major Axis(m)": 7083131.272910544,
        "Time(s)": 29
    },
    {
        "Altitude(m)": 715533.0696439412,
        "Argument of Periapsis(deg)": 0.0017984401873621684,
        "Eccentricity": 0.0,
        "Inclination(deg)": 45.0,
        "Latitude(deg)": -39.48224668478614,
        "Longitude(deg)": 164.87910032819838,
        "Mean Anomaly(deg)": -63.63346579250298,
        "RAAN(deg)": 319.9983023250329,
        "Satellite Name": "Constellation 1 1426",
        "Satellite Number": 1426,
        "Semi-Major Axis(m)": 7083131.272910544,
        "Time(s)": 30
    },
    {
        "Altitude(m)": 715522.8728166383,
        "Argument of Periapsis(deg)": 0.0018583881936075745,
        "Eccentricity": 0.0,
        "Inclination(deg)": 45.0,
        "Latitude(deg)": -39.45761030318472,
        "Longitude(deg)": 164.94653702360387,
        "Mean Anomaly(deg)": -63.57276465225309,
        "RAAN(deg)": 319.99824573586733,
        "Satellite Name": "Constellation 1 1426",
        "Satellite Number": 1426,
        "Semi-Major Axis(m)": 7083131.272910544,
        "Time(s)": 31
    },
    {
        "Altitude(m)": 715512.658233127,
        "Argument of Periapsis(deg)": 0.0019183361998529795,
        "Eccentricity": 0.0,
        "Inclination(deg)": 45.0,
        "Latitude(deg)": -39.4329298146054,
        "Longitude(deg)": 165.013923388086,
        "Mean Anomaly(deg)": -63.51206351200326,
        "RAAN(deg)": 319.9981891467018,
        "Satellite Name": "Constellation 1 1426",
        "Satellite Number": 1426,
        "Semi-Major Axis(m)": 7083131.272910544,
        "Time(s)": 32
    },
    {
        "Altitude(m)": 715502.4259305958,
        "Argument of Periapsis(deg)": 0.0019782842060983856,
        "Eccentricity": 0.0,
        "Inclination(deg)": 45.0,
        "Latitude(deg)": -39.40820528770811,
        "Longitude(deg)": 165.08125941165645,
        "Mean Anomaly(deg)": -63.45136237175332,
        "RAAN(deg)": 319.9981325575362,
        "Satellite Name": "Constellation 1 1426",
        "Satellite Number": 1426,
        "Semi-Major Axis(m)": 7083131.272910544,
        "Time(s)": 33
    },
    {
        "Altitude(m)": 715492.1759462982,
        "Argument of Periapsis(deg)": 0.0020382322123437906,
        "Eccentricity": 0.0,
        "Inclination(deg)": 45.0,
        "Latitude(deg)": -39.38343679114658,
        "Longitude(deg)": 165.14854508474343,
        "Mean Anomaly(deg)": -63.39066123150339,
        "RAAN(deg)": 319.99807596837064,
        "Satellite Name": "Constellation 1 1426",
        "Satellite Number": 1426,
        "Semi-Major Axis(m)": 7083131.272910544,
        "Time(s)": 34
    },
    {
        "Altitude(m)": 715481.9083175557,
        "Argument of Periapsis(deg)": 0.002098180218589197,
        "Eccentricity": 0.0,
        "Inclination(deg)": 45.0,
        "Latitude(deg)": -39.358624393567666,
        "Longitude(deg)": 165.21578039819016,
        "Mean Anomaly(deg)": -63.329960091253554,
        "RAAN(deg)": 319.99801937920506,
        "Satellite Name": "Constellation 1 1426",
        "Satellite Number": 1426,
        "Semi-Major Axis(m)": 7083131.272910544,
        "Time(s)": 35
    },
    {
        "Altitude(m)": 715471.623081744,
        "Argument of Periapsis(deg)": 0.002158128224834602,
        "Eccentricity": 0.0,
        "Inclination(deg)": 45.0,
        "Latitude(deg)": -39.33376816361062,
        "Longitude(deg)": 165.2829653432549,
        "Mean Anomaly(deg)": -63.26925895100361,
        "RAAN(deg)": 319.9979627900395,
        "Satellite Name": "Constellation 1 1426",
        "Satellite Number": 1426,
        "Semi-Major Axis(m)": 7083131.272910544,
        "Time(s)": 36
    },
    {
        "Altitude(m)": 715461.3202763002,
        "Argument of Periapsis(deg)": 0.002218076231080008,
        "Eccentricity": 0.0,
        "Inclination(deg)": 45.0,
        "Latitude(deg)": -39.308868169906575,
        "Longitude(deg)": 165.35009974351064,
        "Mean Anomaly(deg)": -63.208557810753675,
        "RAAN(deg)": 319.9979062008739,
        "Satellite Name": "Constellation 1 1426",
        "Satellite Number": 1426,
        "Semi-Major Axis(m)": 7083131.272910544,
        "Time(s)": 37
    }
]